UNKNOWN                 
1 85111U 73086    22112.38356900  .00000593  00000+0  41302-2 0  9990
2 85111 101.6520  83.9824 0014168  28.1602 332.0233 12.51008869299518
UNKNOWN                 
1 85117U          22115.49852299  .00029207  00000+0  31624-2 0  9998
2 85117  70.0354 192.0854 0060665 300.3171  59.1989 14.86777098401362
UNKNOWN                 
1 85133U          22114.45010318  .00002883  00000+0  12654-2 0  9992
2 85133  98.8646 176.7960 0029945 176.2511 183.8897 14.24148092341547
UNKNOWN                 
1 85151U 86019    22116.49706360  .00004102  00000+0  13315-2 0  9992
2 85151  98.4929 313.5585 0014458 237.4393 122.5399 14.39355400286906
UNKNOWN                 
1 85159U          22115.00037997  .00005005  00000+0  25080-2 0  9990
2 85159  98.8367  20.4948 0085116  72.5253 288.5201 14.15192927310813
UNKNOWN                 
1 85175U          22116.09659661  .00018853  00000+0  36909-2 0  9993
2 85175 101.3732  67.2581 0142183 114.8470 246.7578 14.56602958430369
UNKNOWN                 
1 85205U          22114.60031632  .00000145  00000+0  13172-3 0  9997
2 85205  82.9585 220.5623 0037365  46.0470  15.4225 13.76464055423632
UNKNOWN                 
1 85210U 75052    22116.56042918  .00000348  00000+0  38462-3 0  9992
2 85210  99.7774 216.0101 0225054 109.9380 267.2531 13.68427768420598
UNKNOWN                 
1 85217U          22116.46192415  .00002342  00000+0  73226-3 0  9990
2 85217  97.9256 301.3287 0239895 140.8899 220.9901 14.26313357438195
UNKNOWN                 
1 85220U          22116.44816659  .00010695  00000+0  29198-2 0  9993
2 85220  99.4141 301.2441 0169212 238.1716 120.2899 14.39364597474042
UNKNOWN                 
1 85237U          22115.03253506  .00001930  00000+0  45593-3 0  9991
2 85237  65.5439  36.0060 0609121 262.7437  90.4042 13.80893665423898
UNKNOWN                 
1 85238U          22116.15452345  .00000034  00000+0  62632-4 0  9996
2 85238  98.9120  77.3203 0063294 193.5805 176.9976 13.87971074426794
UNKNOWN                 
1 85246U          22115.58974988  .00001286  00000+0  51366-3 0  9994
2 85246  98.0790 225.4522 0238253 232.4202 125.5126 14.15750711434948
UNKNOWN                 
1 85266U          22115.77848452  .00016537  00000+0  15743-1 0  9995
2 85266  62.7978 262.5119 3599307 163.7395 211.8917  7.77019434253937
UNKNOWN                 
1 85283U 78098    22106.59836652  .00008479  00000+0  18550-2 0  9991
2 85283  99.6947 158.9392 0032909 193.5130 166.5186 14.57702264346480
UNKNOWN                 
1 85292U          22116.55895090  .00007580  00000+0  18595-2 0  9998
2 85292  65.8315 224.6797 0064855 294.6396  64.7959 14.51635504994343
UNKNOWN                 
1 85370U          22116.58766458  .00000747  00000+0  71775-3 0  9991
2 85370  99.9593 234.0231 0008174 239.3665 134.4934 13.83910757425405
UNKNOWN                 
1 85373U          22116.41364850  .00001195  00000+0  97437-3 0  9997
2 85373 100.4319 327.6299 0056456  99.9468  21.2647 13.91473932427204
UNKNOWN                 
1 85383U          22114.69999396  .00005843  00000+0  16024-2 0  9991
2 85383  98.6436 208.4147 0103661  45.4717 315.4883 14.44327907393486
UNKNOWN                 
1 85386U          22116.24078347  .00005245  00000+0  13281-2 0  9999
2 85386  98.6370 223.1718 0108754 333.8926  55.5371 14.47828463444160
UNKNOWN                 
1 85415U          22117.25790653  .00749509  22909-3  13311-2 0  9993
2 85415  51.8893 228.0055 0125892 171.5331 188.7704 15.88140499   250
UNKNOWN                 
1 87014U          22116.42262763  .00001678  00000+0  29901-2 0  9998
2 87014 100.5139 357.7944 0046444 177.2816 359.2826 13.43407164412335
UNKNOWN                 
1 87029U 99025    22115.43174502  .00000609  00000+0  42791-3 0  9998
2 87029  98.8915 176.5354 0083593 350.9455   9.0198 14.00311227406994
UNKNOWN                 
1 87042U 00055    22115.90177330  .00000891  00000+0  58678-3 0  9996
2 87042  98.8589 183.5303 0045273 215.1760 144.6416 14.03887643367608
UNKNOWN                 
1 87051U 76126    22116.10536944  .00001171  00000+0  44351-3 0  9996
2 87051  65.7285 150.7426 0758624  15.8451 346.4968 13.36367126410752
UNKNOWN                 
1 87054U 75052    22116.43866473  .00001751  00000+0  12191-2 0  9995
2 87054 100.0789 191.0832 0015392 268.2393  91.7005 14.00262298430067
UNKNOWN                 
1 87065U 99025    22115.03952586  .00001203  00000+0  14971-2 0  9999
2 87065  98.6899 140.6145 0341668  98.7811 265.2170 13.44297415337927
UNKNOWN                 
1 87071U 68097    22115.20801401  .00001892  00000+0  82667-3 0  9991
2 87071  61.2259 188.1635 0556342 322.9303  33.4462 13.66294605419995
UNKNOWN                 
1 87074U 77121    22116.30981245  .00000403  00000+0  49882-3 0  9998
2 87074  66.1425 234.3151 0158253 277.1188  81.1904 13.70228596421372
UNKNOWN                 
1 87079U          22116.34497614  .00081567  00000+0  54716-2 0  9992
2 87079  70.3056  90.8525 0015624 353.8928   6.2044 15.06289235455336
UNKNOWN                 
1 87091U          22113.19347987  .00071454  00000+0  27895-2 0  9995
2 87091  65.6945  42.9998 0097352 140.0359 220.7997 15.21139051458079
UNKNOWN                 
1 87113U 76126    22116.39040329  .00006988  00000+0  10968-2 0  9990
2 87113  65.6674 350.5000 0354750 183.8325 350.9925 14.38859747440437
UNKNOWN                 
1 87129U 76077    22116.42524380  .00000105  00000+0  11079-2 0  9999
2 87129 102.3245 173.7406 0028494  10.7466 349.4201 12.42093554381959
UNKNOWN                 
1 87159U          22116.51644062  .00000934  00000+0  11632-2 0  9990
2 87159  90.3113  24.5015 0115186 218.9763 140.3051 13.61337544375976
UNKNOWN                 
1 87163U 76126    22116.05533495  .00001533  00000+0  47993-3 0  9999
2 87163  65.6021 231.8410 0715615 283.4945  68.7389 13.51075381397549
UNKNOWN                 
1 87164U          22115.82409980  .00002250  00000+0  62501-3 0  9992
2 87164  65.2058 160.4469 0158418 252.1723 106.2033 14.41540195 37800
UNKNOWN                 
1 87203U          22116.24965296  .00012843  00000+0  28195-2 0  9999
2 87203  98.8776  47.7937 0064146  63.5082 297.2674 14.56425978359093
UNKNOWN                 
1 87204U          22116.42479388  .00001298  00000+0  61022-3 0  9991
2 87204  98.6681 348.2197 0049488 226.5477 133.1579 14.21084319436590
UNKNOWN                 
1 87211U          22116.57038391  .00001740  00000+0  64425-3 0  9992
2 87211  99.0049  31.3993 0068971  95.9291  27.7826 14.32329148517154
UNKNOWN                 
1 87213U 99025    22107.78269407  .00016113  00000+0  18280-2 0  9993
2 87213  99.0478 295.0264 0056029 333.2517  26.5807 14.85292544363671
UNKNOWN                 
1 87214U 70025    22115.57571616  .00000992  00000+0  99716-3 0  9999
2 87214 100.3322 337.4037 0081740  51.2807 309.5613 13.78995436417043
UNKNOWN                 
1 87222U          22116.16263558  .00080533  00000+0  31714-2 0  9995
2 87222  98.9636  77.0628 0049452 105.1002 255.5709 15.24143132548788
UNKNOWN                 
1 87228U 99025    22112.58047903  .00008100  00000+0  27940-2 0  9998
2 87228  98.9291 241.0726 0044020  71.2059 289.3893 14.35572458413399
UNKNOWN                 
1 87235U          22113.18789374  .00003850  00000+0  14150-2 0  9999
2 87235  98.9569 259.6392 0152732 111.2483 250.5086 14.26995758395503
UNKNOWN                 
1 87237U 99025    22116.36202117  .00000376  00000+0  32739-3 0  9998
2 87237  99.4194 148.6315 0104858 255.7799 116.6055 13.90094780427382
UNKNOWN                 
1 87239U 81053    22116.20616103  .00003722  00000+0  15404-2 0  9996
2 87239  82.8818 100.0510 0029736 165.6936 194.5098 14.26192527437476
UNKNOWN                 
1 87245U 71015    22116.21214291  .00002307  00000+0  59360-3 0  9991
2 87245  65.6617 286.2229 0514438  39.2578 132.6114 13.94264416428034
UNKNOWN                 
1 87256U 99025    22112.91961612  .00001218  00000+0  75300-3 0  9995
2 87256  98.8482 182.7051 0046304 179.9666 180.1514 14.06644676396679
UNKNOWN                 
1 87271U 71015    22116.34225028  .00011848  00000+0  27703-2 0  9999
2 87271  65.7724 100.7488 0552823  22.8629 339.6056 13.89538396426223
UNKNOWN                 
1 87280U          22116.17099623  .00000409  00000+0  77288-3 0  9991
2 87280  64.6157 271.2984 0122971 220.7408 138.4385 13.47077824355079
UNKNOWN                 
1 87293U 71015    22116.38492582  .00003194  00000+0  78527-3 0  9994
2 87293  65.9121 352.1071 0524147 347.7323  11.1376 13.93785322427797
UNKNOWN                 
1 87300U 70025    22115.01799156  .00001093  00000+0  87410-3 0  9996
2 87300 100.0994 319.7674 0031474 211.8763 148.0489 13.93211204427886
UNKNOWN                 
1 87304U          22116.07475942  .00000950  00000+0  16921-3 0  9997
2 87304  74.0221  21.3788 0021099 324.3854  35.5907 14.68429423451359
UNKNOWN                 
1 87305U 93036    22114.40405307  .00009925  00000+0  18410-2 0  9997
2 87305  73.9972 264.0922 0034972  18.3570 341.8851 14.64945474279013
UNKNOWN                 
1 87320U 71015    22116.34361554  .00001210  00000+0  85320-3 0  9991
2 87320  66.6000 345.3715 0443494 174.9896 185.5837 13.62307510412620
UNKNOWN                 
1 87334U          22116.40996153  .00007443  00000+0  94751-2 0  9999
2 87334  90.0017 270.9721 0072864 325.2576  34.3834 13.62024737204038
UNKNOWN                 
1 87335U          22116.41038220  .00006527  00000+0  82291-2 0  9991
2 87335  89.9883 269.3509 0079514 300.2352  59.0950 13.62406236204094
UNKNOWN                 
1 87382U 93016    22116.53300347  .00260277  00000+0  17861-1 0  9991
2 87382  70.9495  69.6485 0018571 226.7188 133.2433 15.04454889361386
UNKNOWN                 
1 87397U 94029    22115.69985686  .00022883  00000+0  38332-2 0  9999
2 87397  81.2420 105.0765 0012990  14.9089 345.2495 14.69613686361775
